NORAD_CAT_ID,OBJECT_NAME,OBJECT_TYPE,EPOCH,MEAN_MOTION,ECCENTRICITY,INCLINATION,RA_OF_ASC_NODE,ARG_OF_PERICENTER,MEAN_ANOMALY,BSTAR,MEAN_MOTION_DOT,MEAN_MOTION_DDOT,TLE_LINE0,TLE_LINE1,TLE_LINE2,SEMIMAJOR_AXIS,PERIOD,APOGEE,PERIGEE,DECAYED
52582.0,STARLINK-3886,PAYLOAD,2022-05-18 18:00:00,15.82846463,0.0001216,53.2179,269.3523,50.854,295.6222,-0.0045065,-0.00882398,0.0,0 STARLINK-3886,1 52582U 22051AY  22138.75001157 -.00882398  00000-0 -45065-2 0  9996,2 52582  53.2179 269.3523 0001216  50.8540 295.6222 15.82846463  1302,6700.531999999997,90.975,323.212,321.583,0.0
52582.0,STARLINK-3886,PAYLOAD,2022-05-19 14:00:01,15.81271685,0.0001667,53.2173,265.1732,29.2156,26.2358,-0.0048372,-0.00879871,0.0,0 STARLINK-3886,1 52582U 22051AY  22139.58335648 -.00879871  00000-0 -48372-2 0  9999,2 52582  53.2173 265.1732 0001667  29.2156  26.2358 15.81271685  1300,6704.98,91.066,327.963,325.728,0.0
52582.0,STARLINK-3886,PAYLOAD,2022-05-19 22:00:00,15.80642125,0.0001377,53.2173,263.5047,46.5294,107.096,-0.0049791,-0.00879438,0.0,0 STARLINK-3886,1 52582U 22051AY  22139.91667824 -.00879438  00000-0 -49791-2 0  9995,2 52582  53.2173 263.5047 0001377  46.5294 107.0960 15.80642125  1480,6706.761,91.102,329.5490000000001,327.702,0.0
52582.0,STARLINK-3886,PAYLOAD,2022-05-20 14:00:01,15.793835,0.0001874,53.2176,260.1722,24.4474,323.3888,-0.0052714,-0.00878796,0.0,0 STARLINK-3886,1 52582U 22051AY  22140.58334491 -.00878796  00000-0 -52714-2 0  9996,2 52582  53.2176 260.1722 0001874  24.4474 323.3888 15.79383500  1303,6710.323,91.175,333.446,330.931,0.0
52582.0,STARLINK-3886,PAYLOAD,2022-05-20 22:00:00,15.78753479,0.0001581,53.2171,258.5081,32.5722,51.2356,-0.0054133,-0.00876914,0.0,0 STARLINK-3886,1 52582U 22051AY  22140.91667824 -.00876914  00000-0 -54133-2 0  9999,2 52582  53.2171 258.5081 0001581  32.5722  51.2356 15.78753479  1647,6712.108,91.211,335.035,332.912,0.0
52582.0,STARLINK-3886,PAYLOAD,2022-05-21 06:00:00,15.78124069,0.0001817,53.2172,256.844,32.01,147.0137,-0.0055704,-0.00877009,0.0,0 STARLINK-3886,1 52582U 22051AY  22141.25001157 -.00877009  00000-0 -55704-2 0  9999,2 52582  53.2172 256.8440 0001817  32.0100 147.0137 15.78124069  1306,6713.893,91.248,336.978,334.538,0.0
52582.0,STARLINK-3886,PAYLOAD,2022-05-21 14:00:01,15.77492954,0.0002078,53.2173,255.1852,17.3874,256.1604,-0.0057119,-0.00874402,0.0,0 STARLINK-3886,1 52582U 22051AY  22141.58335648 -.00874402  00000-0 -57119-2 0  9996,2 52582  53.2173 255.1852 0002078  17.3874 256.1604 15.77492954  1301,6715.684,91.284,338.944,336.153,0.0
52582.0,STARLINK-3886,PAYLOAD,2022-05-21 20:00:01,15.77021754,0.0001284,53.2174,253.9409,38.6054,215.2234,-0.0058299,-0.00873563,0.0,0 STARLINK-3886,1 52582U 22051AY  22141.83334491 -.00873563  00000-0 -58299-2 0  9996,2 52582  53.2174 253.9409 0001284  38.6054 215.2234 15.77021754  1783,6717.021,91.311,339.749,338.024,0.0
52582.0,STARLINK-3886,PAYLOAD,2022-05-21 22:00:00,15.76866049,0.0001304,53.2173,253.5256,36.716,330.4676,-0.0058949,-0.00876828,0.0,0 STARLINK-3886,1 52582U 22051AY  22141.91667824 -.00876828  00000-0 -58949-2 0  9993,2 52582  53.2173 253.5256 0001304  36.7160 330.4676 15.76866049  1309,6717.4630000000025,91.32,340.204,338.452,0.0
52582.0,STARLINK-3886,PAYLOAD,2022-05-22 14:00:01,15.75605748,0.0001854,53.2175,250.212,32.6063,159.7144,-0.0062149,-0.00874493,0.0,0 STARLINK-3886,1 52582U 22051AY  22142.58334491 -.00874493  00000-0 -62149-2 0  9991,2 52582  53.2175 250.2120 0001854  32.6063 159.7144 15.75605748  1906,6721.045,91.393,344.156,341.664,0.0
52582.0,STARLINK-3886,PAYLOAD,2022-05-22 22:00:01,15.74978334,0.0001317,53.2172,248.5567,48.4736,235.3463,-0.0064128999999999,-0.00877251,0.0,0 STARLINK-3886,1 52582U 22051AY  22142.91668981 -.00877251  00000-0 -64129-2 0  9997,2 52582  53.2172 248.5567 0001317  48.4736 235.3463 15.74978334  1306,6722.83,91.43,345.58,343.809,0.0
52582.0,STARLINK-3886,PAYLOAD,2022-05-23 14:00:01,15.73585982,0.0001924,53.2172,245.2528,24.6143,79.7631,-0.0038572,-0.00518508,0.0,0 STARLINK-3886,1 52582U 22051AY  22143.58334491 -.00518508  00000-0 -38572-2 0  9997,2 52582  53.2172 245.2528 0001924  24.6143  79.7631 15.73585982  1308,6726.795,91.511,349.954,347.366,0.0
52582.0,STARLINK-3886,PAYLOAD,2022-05-23 16:00:00,15.73375826,0.0002071,53.2175,244.8404,28.6481,188.0964,-0.0018613,-0.00256013,0.0,0 STARLINK-3886,1 52582U 22051AY  22143.66667824 -.00256013  00000-0 -18613-2 0  9999,2 52582  53.2175 244.8404 0002071  28.6481 188.0964 15.73375826  2074,6727.394,91.523,350.652,347.866,0.0
52582.0,STARLINK-3886,PAYLOAD,2022-05-23 20:00:01,15.73207588,0.000152,53.2171,244.0149,38.009,43.2923,-4.2029e-05,-6.516e-05,0.0,0 STARLINK-3886,1 52582U 22051AY  22143.83334491 -.00006516  00000-0 -42029-4 0  9990,2 52582  53.2171 244.0149 0001520  38.0090  43.2923 15.73207588  2107,6727.874,91.533,350.761,348.716,0.0
52582.0,STARLINK-3886,PAYLOAD,2022-05-23 22:00:01,15.73206684,0.0001578,53.2173,243.6018,40.0377,153.5635,-3.5784e-05,-5.641e-05,0.0,0 STARLINK-3886,1 52582U 22051AY  22143.91668981 -.00005641  00000-0 -35784-4 0  9991,2 52582  53.2173 243.6018 0001578  40.0377 153.5635 15.73206684  1305,6727.876,91.533,350.80300000000005,348.67900000000014,0.0
52582.0,STARLINK-3886,PAYLOAD,2022-05-24 12:25:36,15.73410897,0.0001908,53.2225,240.6396,149.8688,210.2443,0.00087817,0.00125619,0.0,0 STARLINK-3886,1 52582U 22051AY  22144.51778343  .00125619  00000-0  87817-3 0  9991,2 52582  53.2225 240.6396 0001908 149.8688 210.2443 15.73410897  2211,6727.294,91.521,350.4430000000001,347.875,0.0
52582.0,STARLINK-3886,PAYLOAD,2022-05-24 22:00:00,15.73252768,0.0001997,53.2176,238.6664,32.2934,68.2311,-0.00047432,-0.00066818,0.0,0 STARLINK-3886,1 52582U 22051AY  22144.91667824 -.00066818  00000-0 -47432-3 0  9992,2 52582  53.2176 238.6664 0001997  32.2934  68.2311 15.73252768  2270,6727.745,91.53,350.95300000000015,348.266,0.0
52582.0,STARLINK-3886,PAYLOAD,2022-05-25 14:00:01,15.73142306,0.0002221,53.2182,235.3687,33.1181,245.2915,0.00029852,0.0004138,0.0,0 STARLINK-3886,1 52582U 22051AY  22145.58334491  .00041380  00000-0  29852-3 0  9998,2 52582  53.2182 235.3687 0002221  33.1181 245.2915 15.73142306  1307,6728.06,91.537,351.4190000000001,348.43,0.0
52582.0,STARLINK-3886,PAYLOAD,2022-05-25 20:26:42,15.73184155,0.0002166,53.219,234.037,34.9734,325.1428,0.00029392,0.00040804,0.0,0 STARLINK-3886,1 52582U 22051AY  22145.85188274  .00040804  00000-0  29392-3 0  9993,2 52582  53.2190 234.0370 0002166  34.9734 325.1428 15.73184155  2421,6727.94,91.534,351.26300000000015,348.348,0.0
52582.0,STARLINK-3886,PAYLOAD,2022-05-26 05:35:35,15.73268499,0.0001829,53.2185,232.1509,43.301,316.8153,0.001389,0.00199605,0.0,0 STARLINK-3886,1 52582U 22051AY  22146.23305158  .00199605  00000-0  13890-2 0  9997,2 52582  53.2185 232.1509 0001829  43.3010 316.8153 15.73268499  2486,6727.7,91.529,350.795,348.334,0.0
52582.0,STARLINK-3886,PAYLOAD,2022-05-26 11:41:30,15.7324397,0.000275,53.2185,230.8933,31.3278,328.7905,0.00076722,0.00108673,0.0,0 STARLINK-3886,1 52582U 22051AY  22146.48716108  .00108673  00000-0  76722-3 0  9994,2 52582  53.2185 230.8933 0002750  31.3278 328.7905 15.73243970  2528,6727.77,91.531,351.485,347.785,0.0
52582.0,STARLINK-3886,PAYLOAD,2022-05-26 13:12:59,15.73234724,0.0002386,53.2186,230.5793,35.6281,324.4898,0.00050352,0.00070753,0.0,0 STARLINK-3886,1 52582U 22051AY  22146.55068850  .00070753  00000-0  50352-3 0  9994,2 52582  53.2186 230.5793 0002386  35.6281 324.4898 15.73234724  2460,6727.795999999999,91.531,351.266,348.056,0.0
52582.0,STARLINK-3886,PAYLOAD,2022-05-26 19:18:54,15.73215505,0.0002255,53.2183,229.3218,25.8268,334.2864,0.00029914,0.000416,0.0,0 STARLINK-3886,1 52582U 22051AY  22146.80479962  .00041600  00000-0  29914-3 0  9991,2 52582  53.2183 229.3218 0002255  25.8268 334.2864 15.73215505  2576,6727.851,91.532,351.233,348.199,0.0
52582.0,STARLINK-3886,PAYLOAD,2022-05-26 22:00:00,15.73191012,0.0002166,53.2178,228.7698,26.8243,247.2933,-0.00047309,-0.00066476,0.0,0 STARLINK-3886,1 52582U 22051AY  22146.91667824 -.00066476  00000-0 -47309-3 0  9997,2 52582  53.2178 228.7698 0002166  26.8243 247.2933 15.73191012  1306,6727.920999999999,91.534,351.24300000000005,348.329,0.0
52582.0,STARLINK-3886,PAYLOAD,2022-05-27 02:00:01,15.73182723,0.0001998,53.2179,227.9444,23.4875,115.0761,0.0006607,0.00093072,0.0,0 STARLINK-3886,1 52582U 22051AY  22147.08334491  .00093072  00000-0  66070-3 0  9993,2 52582  53.2179 227.9444 0001998  23.4875 115.0761 15.73182723  2618,6727.944,91.534,351.154,348.465,0.0
52582.0,STARLINK-3886,PAYLOAD,2022-05-27 13:36:39,15.7329532,0.0001544,53.2183,225.5501,41.1988,318.9148,0.00074851,0.001062,0.0,0 STARLINK-3886,1 52582U 22051AY  22147.56712667  .00106200  00000-0  74851-3 0  9995,2 52582  53.2183 225.5501 0001544  41.1988 318.9148 15.73295320  2622,6727.623000000001,91.528,350.527,348.45,0.0
52582.0,STARLINK-3886,PAYLOAD,2022-05-27 16:00:00,15.73245351,0.0002306,53.2182,225.0602,20.2085,184.0452,0.00074654,0.00105691,0.0,0 STARLINK-3886,1 52582U 22051AY  22147.66667824  .00105691  00000-0  74654-3 0  9994,2 52582  53.2182 225.0602 0002306  20.2085 184.0452 15.73245351  2709,6727.766,91.531,351.182,348.079,0.0
52582.0,STARLINK-3886,PAYLOAD,2022-05-27 22:00:01,15.73313504,0.000221,53.2184,223.8214,21.6198,159.46,0.00013931,0.0001907,0.0,0 STARLINK-3886,1 52582U 22051AY  22147.91668981  .00019070  00000-0  13931-3 0  9993,2 52582  53.2184 223.8214 0002210  21.6198 159.4600 15.73313504  1302,6727.571999999999,91.527,350.923,347.95,0.0
52582.0,STARLINK-3886,PAYLOAD,2022-05-28 04:00:00,15.73228209,0.0002203,53.2185,222.5836,26.2938,131.3656,0.00019111,0.00026318,0.0,0 STARLINK-3886,1 52582U 22051AY  22148.16667824  .00026318  00000-0  19111-3 0  9995,2 52582  53.2185 222.5836 0002203  26.2938 131.3656 15.73228209  2784,6727.815,91.532,351.162,348.1980000000001,0.0
